{
  "norad_id": 58230,
  "name": "STARLINK-30861",
  "history": [
    {
      "epoch": "2026-03-28T16:14:57.443136Z",
      "apogee_km": 496.14401783387166,
      "perigee_km": 492.66513728731115,
      "latitude_deg": -2.7326036783486717e-05,
      "longitude_deg": 108.58275400139193,
      "height_km": 492.5833623062795,
      "semi_major_axis_km": 6872.541577560592,
      "eccentricity": 0.0002531,
      "inclination_deg": 43.0003,
      "raan_deg": 178.4162,
      "arg_perigee_deg": 336.7523,
      "mean_anomaly_deg": 23.3212,
      "mean_motion_rev_day": 15.2379554
    }
  ]
}